{"type": "FeatureCollection", "features": [ {"type": "Feature", "properties": {"norad_id": 42987, "name": "SKYSAT-C11", "group": "resource", "lat": 14.495456368549176, "lon": 130.46096964986455, "alt_km": 424.2453039836528, "timestamp": "2025-12-20T16:47:35.948984+00:00", "meta": {"OBJECT_NAME": "SKYSAT-C11", "OBJECT_ID": "2017-068A", "EPOCH": "2025-12-20T08:58:19.560000", "MEAN_MOTION": 15.47751226, "ECCENTRICITY": 0.0001161, "INCLINATION": 97.4144, "RA_OF_ASC_NODE": 132.0563, "ARG_OF_PERICENTER": 99.9732, "MEAN_ANOMALY": 260.1649, "EPHEMERIS_TYPE": 0, "CLASSIFICATION_TYPE": "U", "NORAD_CAT_ID": 42987, "ELEMENT_SET_NO": 999, "REV_AT_EPOCH": 45549, "BSTAR": 0.00032105, "MEAN_MOTION_DOT": 0.00016553, "MEAN_MOTION_DDOT": 0}, "tle": {"line1": "1 42987U 17068A   25354.37383750  .00016553  00000+0  32105-3 0  9990", "line2": "2 42987  97.4144 132.0563 0001161  99.9732 260.1649 15.47751226455494"}}, "geometry": {"type": "Point", "coordinates": [130.46096964986455, 14.495456368549176]}}, {"type": "Feature", "properties": {"norad_id": 42988, "name": "SKYSAT-C10", "group": "resource", "lat": 12.425163702480175, "lon": 123.92643437401908, "alt_km": 469.19988439500594, "timestamp": "2025-12-20T16:47:35.948995+00:00", "meta": {"OBJECT_NAME": "SKYSAT-C10", "OBJECT_ID": "2017-068B", "EPOCH": "2025-12-20T07:20:04.512192", "MEAN_MOTION": 15.32214409, "ECCENTRICITY": 0.0005368, "INCLINATION": 97.4268, "RA_OF_ASC_NODE": 125.1781, "ARG_OF_PERICENTER": 82.7976, "MEAN_ANOMALY": 277.3876, "EPHEMERIS_TYPE": 0, "CLASSIFICATION_TYPE": "U", "NORAD_CAT_ID": 42988, "ELEMENT_SET_NO": 999, "REV_AT_EPOCH": 45495, "BSTAR": 0.00027923, "MEAN_MOTION_DOT": 8.611e-05, "MEAN_MOTION_DDOT": 0}, "tle": {"line1": "1 42988U 17068B   25354.30560778  .00008611  00000+0  27923-3 0  9999", "line2": "2 42988  97.4268 125.1781 0005368  82.7976 277.3876 15.32214409454953"}}, "geometry": {"type": "Point", "coordinates": [123.92643437401908, 12.425163702480175]}}, {"type": "Feature", "properties": {"norad_id": 42989, "name": "SKYSAT-C9", "group": "resource", "lat": -25.19791823299519, "lon": 128.53293754034894, "alt_km": 462.6571402953514, "timestamp": "2025-12-20T16:47:35.949006+00:00", "meta": {"OBJECT_NAME": "SKYSAT-C9", "OBJECT_ID": "2017-068C", "EPOCH": "2025-12-20T09:05:14.412192", "MEAN_MOTION": 15.36231902, "ECCENTRICITY": 0.0010507, "INCLINATION": 97.4201, "RA_OF_ASC_NODE": 124.6936, "ARG_OF_PERICENTER": 63.4871, "MEAN_ANOMALY": 296.7449, "EPHEMERIS_TYPE": 0, "CLASSIFICATION_TYPE": "U", "NORAD_CAT_ID": 42989, "ELEMENT_SET_NO": 999, "REV_AT_EPOCH": 45525, "BSTAR": 0.00027592, "MEAN_MOTION_DOT": 9.68e-05, "MEAN_MOTION_DDOT": 0}, "tle": {"line1": "1 42989U 17068C   25354.37863903  .00009680  00000+0  27592-3 0  9992", "line2": "2 42989  97.4201 124.6936 0010507  63.4871 296.7449 15.36231902455254"}}, "geometry": {"type": "Point", "coordinates": [128.53293754034894, -25.19791823299519]}}, {"type": "Feature", "properties": {"norad_id": 42990, "name": "SKYSAT-C8", "group": "resource", "lat": -35.45612141107035, "lon": -60.59608176787364, "alt_km": 472.98147556243293, "timestamp": "2025-12-20T16:47:35.949016+00:00", "meta": {"OBJECT_NAME": "SKYSAT-C8", "OBJECT_ID": "2017-068D", "EPOCH": "2025-12-20T06:27:22.559040", "MEAN_MOTION": 15.3307619, "ECCENTRICITY": 0.0001076, "INCLINATION": 97.4285, "RA_OF_ASC_NODE": 124.3027, "ARG_OF_PERICENTER": 306.8673, "MEAN_ANOMALY": 53.247, "EPHEMERIS_TYPE": 0, "CLASSIFICATION_TYPE": "U", "NORAD_CAT_ID": 42990, "ELEMENT_SET_NO": 999, "REV_AT_EPOCH": 45486, "BSTAR": 0.00026424, "MEAN_MOTION_DOT": 8.365e-05, "MEAN_MOTION_DDOT": 0}, "tle": {"line1": "1 42990U 17068D   25354.26901110  .00008365  00000+0  26424-3 0  9997", "line2": "2 42990  97.4285 124.3027 0001076 306.8673  53.2470 15.33076190454860"}}, "geometry": {"type": "Point", "coordinates": [-60.59608176787364, -35.45612141107035]}}, {"type": "Feature", "properties": {"norad_id": 42991, "name": "SKYSAT-C7", "group": "resource", "lat": 53.335675336611494, "lon": 115.67445345113799, "alt_km": 458.8915471057171, "timestamp": "2025-12-20T16:47:35.949026+00:00", "meta": {"OBJECT_NAME": "SKYSAT-C7", "OBJECT_ID": "2017-068E", "EPOCH": "2025-12-20T07:09:22.523904", "MEAN_MOTION": 15.32476114, "ECCENTRICITY": 0.0007174, "INCLINATION": 97.4292, "RA_OF_ASC_NODE": 125.367, "ARG_OF_PERICENTER": 33.5088, "MEAN_ANOMALY": 326.6606, "EPHEMERIS_TYPE": 0, "CLASSIFICATION_TYPE": "U", "NORAD_CAT_ID": 42991, "ELEMENT_SET_NO": 999, "REV_AT_EPOCH": 45493, "BSTAR": 0.00025454, "MEAN_MOTION_DOT": 7.909e-05, "MEAN_MOTION_DDOT": 0}, "tle": {"line1": "1 42991U 17068E   25354.29817736  .00007909  00000+0  25454-3 0  9996", "line2": "2 42991  97.4292 125.3670 0007174  33.5088 326.6606 15.32476114454938"}}, "geometry": {"type": "Point", "coordinates": [115.67445345113799, 53.335675336611494]}}, {"type": "Feature", "properties": {"norad_id": 42992, "name": "SKYSAT-C6", "group": "resource", "lat": 32.604527959193305, "lon": -49.00798498620781, "alt_km": 468.8438790103319, "timestamp": "2025-12-20T16:47:35.949037+00:00", "meta": {"OBJECT_NAME": "SKYSAT-C6", "OBJECT_ID": "2017-068F", "EPOCH": "2025-12-20T08:18:51.588288", "MEAN_MOTION": 15.3163493, "ECCENTRICITY": 0.0004992, "INCLINATION": 97.4327, "RA_OF_ASC_NODE": 125.8477, "ARG_OF_PERICENTER": 61.8537, "MEAN_ANOMALY": 298.3208, "EPHEMERIS_TYPE": 0, "CLASSIFICATION_TYPE": "U", "NORAD_CAT_ID": 42992, "ELEMENT_SET_NO": 999, "REV_AT_EPOCH": 45492, "BSTAR": 0.00024416, "MEAN_MOTION_DOT": 7.383e-05, "MEAN_MOTION_DDOT": 0}, "tle": {"line1": "1 42992U 17068F   25354.34643042  .00007383  00000+0  24416-3 0  9993", "line2": "2 42992  97.4327 125.8477 0004992  61.8537 298.3208 15.31634930454929"}}, "geometry": {"type": "Point", "coordinates": [-49.00798498620781, 32.604527959193305]}}, {"type": "Feature", "properties": {"norad_id": 43111, "name": "CARTOSAT-2F", "group": "resource", "lat": -78.70563310042014, "lon": -168.59699765961085, "alt_km": 516.4758795114658, "timestamp": "2025-12-20T16:47:35.949047+00:00", "meta": {"OBJECT_NAME": "CARTOSAT-2F", "OBJECT_ID": "2018-004A", "EPOCH": "2025-12-20T12:29:03.534720", "MEAN_MOTION": 15.19197756, "ECCENTRICITY": 0.0001405, "INCLINATION": 97.4309, "RA_OF_ASC_NODE": 52.0329, "ARG_OF_PERICENTER": 109.2563, "MEAN_ANOMALY": 250.8824, "EPHEMERIS_TYPE": 0, "CLASSIFICATION_TYPE": "U", "NORAD_CAT_ID": 43111, "ELEMENT_SET_NO": 999, "REV_AT_EPOCH": 44020, "BSTAR": 0.00031709, "MEAN_MOTION_DOT": 6.607e-05, "MEAN_MOTION_DDOT": 0}, "tle": {"line1": "1 43111U 18004A   25354.52017980  .00006607  00000+0  31709-3 0  9995", "line2": "2 43111  97.4309  52.0329 0001405 109.2563 250.8824 15.19197756440201"}}, "geometry": {"type": "Point", "coordinates": [-168.59699765961085, -78.70563310042014]}}, {"type": "Feature", "properties": {"norad_id": 43259, "name": "GAOFEN-1 02", "group": "resource", "lat": -61.240437922083785, "lon": -142.50920945000067, "alt_km": 646.8978203850193, "timestamp": "2025-12-20T16:47:35.949057+00:00", "meta": {"OBJECT_NAME": "GAOFEN-1 02", "OBJECT_ID": "2018-031A", "EPOCH": "2025-12-20T12:26:47.054688", "MEAN_MOTION": 14.76430007, "ECCENTRICITY": 0.0002254, "INCLINATION": 98.0802, "RA_OF_ASC_NODE": 52.3112, "ARG_OF_PERICENTER": 186.6959, "MEAN_ANOMALY": 173.4221, "EPHEMERIS_TYPE": 0, "CLASSIFICATION_TYPE": "U", "NORAD_CAT_ID": 43259, "ELEMENT_SET_NO": 999, "REV_AT_EPOCH": 41633, "BSTAR": 0.00011114, "MEAN_MOTION_DOT": 7.21e-06, "MEAN_MOTION_DDOT": 0}, "tle": {"line1": "1 43259U 18031A   25354.51860017  .00000721  00000+0  11114-3 0  9993", "line2": "2 43259  98.0802  52.3112 0002254 186.6959 173.4221 14.76430007416332"}}, "geometry": {"type": "Point", "coordinates": [-142.50920945000067, -61.240437922083785]}}, {"type": "Feature", "properties": {"norad_id": 43260, "name": "GAOFEN-1 03", "group": "resource", "lat": -2.0637702607240085, "lon": 52.66100746735712, "alt_km": 643.5589549026927, "timestamp": "2025-12-20T16:47:35.949073+00:00", "meta": {"OBJECT_NAME": "GAOFEN-1 03", "OBJECT_ID": "2018-031B", "EPOCH": "2025-12-20T11:55:23.628864", "MEAN_MOTION": 14.764514, "ECCENTRICITY": 0.00017, "INCLINATION": 98.0788, "RA_OF_ASC_NODE": 52.1648, "ARG_OF_PERICENTER": 281.4855, "MEAN_ANOMALY": 78.6164, "EPHEMERIS_TYPE": 0, "CLASSIFICATION_TYPE": "U", "NORAD_CAT_ID": 43260, "ELEMENT_SET_NO": 999, "REV_AT_EPOCH": 41632, "BSTAR": 9.8887e-05, "MEAN_MOTION_DOT": 6.36e-06, "MEAN_MOTION_DDOT": 0}, "tle": {"line1": "1 43260U 18031B   25354.49680126  .00000636  00000+0  98887-4 0  9991", "line2": "2 43260  98.0788  52.1648 0001700 281.4855  78.6164 14.76451400416324"}}, "geometry": {"type": "Point", "coordinates": [52.66100746735712, -2.0637702607240085]}}, {"type": "Feature", "properties": {"norad_id": 43262, "name": "GAOFEN-1 04", "group": "resource", "lat": 51.680846667723, "lon": -117.10506812912352, "alt_km": 635.7117961653776, "timestamp": "2025-12-20T16:47:35.949083+00:00", "meta": {"OBJECT_NAME": "GAOFEN-1 04", "OBJECT_ID": "2018-031D", "EPOCH": "2025-12-20T12:57:53.009568", "MEAN_MOTION": 14.76423157, "ECCENTRICITY": 7.39e-05, "INCLINATION": 98.0804, "RA_OF_ASC_NODE": 52.3793, "ARG_OF_PERICENTER": 53.4228, "MEAN_ANOMALY": 306.7049, "EPHEMERIS_TYPE": 0, "CLASSIFICATION_TYPE": "U", "NORAD_CAT_ID": 43262, "ELEMENT_SET_NO": 999, "REV_AT_EPOCH": 41632, "BSTAR": 0.00018382, "MEAN_MOTION_DOT": 1.226e-05, "MEAN_MOTION_DDOT": 0}, "tle": {"line1": "1 43262U 18031D   25354.54019687  .00001226  00000+0  18382-3 0  9994", "line2": "2 43262  98.0804  52.3793 0000739  53.4228 306.7049 14.76423157416325"}}, "geometry": {"type": "Point", "coordinates": [-117.10506812912352, 51.680846667723]}}]}